#dV2023  2  3 22  0  0.00000000    1682       CTS   FIT  GFZ
## 2247 511200.00000000    30.00000000 59978 0.9166666666667
+    1   L64  0  0  0  0  0  0  0  0  0  0  0  0  0  0  0  0
+          0  0  0  0  0  0  0  0  0  0  0  0  0  0  0  0  0
+          0  0  0  0  0  0  0  0  0  0  0  0  0  0  0  0  0
+          0  0  0  0  0  0  0  0  0  0  0  0  0  0  0  0  0
+          0  0  0  0  0  0  0  0  0  0  0  0  0  0  0  0  0
++         0  0  0  0  0  0  0  0  0  0  0  0  0  0  0  0  0
++         0  0  0  0  0  0  0  0  0  0  0  0  0  0  0  0  0
++         0  0  0  0  0  0  0  0  0  0  0  0  0  0  0  0  0
++         0  0  0  0  0  0  0  0  0  0  0  0  0  0  0  0  0
++         0  0  0  0  0  0  0  0  0  0  0  0  0  0  0  0  0
%c L  cc GPS ccc cccc cccc cccc cccc ccccc ccccc ccccc ccccc
%c cc cc ccc ccc cccc cccc cccc cccc ccccc ccccc ccccc ccccc
%f  0.0000000  0.000000000  0.00000000000  0.000000000000000
%f  0.0000000  0.000000000  0.00000000000  0.000000000000000
%i    0    0    0    0      0      0      0      0         0
%i    0    0    0    0      0      0      0      0         0
/* CCCCCCCCCCCCCCCCCCCCCCCCCCCCCCCCCCCCCCCCCCCCCCCCCCCCCCCCCCCCCCCCCCCCCCCCCCCCC
/* C                             GFZ RSO-ORBIT                                 C
/* C DOI: https://doi.org/10.5880/GFZ_ORBIT/RSO/L64_G_v02                      C
/* C                                                                           C
/* C DORIS        RMS: not applicable                                          C
/* C GNSS-E Code  RMS: not applicable                                          C
/* C GNSS-E Phase RMS: not applicable                                          C
/* C GNSS-G Code  RMS:  51.563 [cm]   Obs.acc.:     13963 Obs.eli.:       907  C
/* C GNSS-G Phase RMS:   4.684 [mm]   Obs.acc.:     13963 Obs.eli.:       907  C
/* C SLR          RMS:   2.592 [cm]   Obs.acc.:        17 Obs.eli.:         0  C
/* C                                                                           C
/* CCCCCCCCCCCCCCCCCCCCCCCCCCCCCCCCCCCCCCCCCCCCCCCCCCCCCCCCCCCCCCCCCCCCCCCCCCCCC
*  2023  2  4  6 30  0.00000000
PL64  -3878.014963   3700.535181   4302.061564    768.140947
VL64  36075.739322 -31394.013378  59241.838900 999999.999999
*  2023  2  4  6 30 30.00000000
PL64  -3767.886879   3604.098331   4477.374420    768.600988
VL64  37335.169633 -32892.252864  57622.621051 999999.999999
*  2023  2  4  6 31  0.00000000
PL64  -3654.051446   3503.212387   4647.733532    769.061004
VL64  38547.101245 -34359.769666  55939.647353 999999.999999
*  2023  2  4  6 31 30.00000000
PL64  -3536.652965   3397.972260   4812.950408    769.520742
VL64  39710.340910 -35794.740967  54194.779528 999999.999999
*  2023  2  4  6 32  0.00000000
PL64  -3415.839227   3288.478280   4972.842242    769.979950
VL64  40823.756118 -37195.374723  52389.946872 999999.999999
*  2023  2  4  6 32 30.00000000
PL64  -3291.761325   3174.836109   5127.232118    770.438892
VL64  41886.277607 -38559.912251  50527.145366 999999.999999
*  2023  2  4  6 33  0.00000000
PL64  -3164.573462   3057.156627   5275.949202    770.898094
VL64  42896.901215 -39886.630935  48608.434082 999999.999999
*  2023  2  4  6 33 30.00000000
PL64  -3034.432756   2935.555828   5418.828930    771.357334
VL64  43854.687883 -41173.846106  46635.932010 999999.999999
*  2023  2  4  6 34  0.00000000
PL64  -2901.499047   2810.154700   5555.713179    771.816554
VL64  44758.764024 -42419.912890  44611.816044 999999.999999
*  2023  2  4  6 34 30.00000000
PL64  -2765.934693   2681.079104   5686.450443    772.275838
VL64  45608.322129 -43623.228066  42538.318457 999999.999999
*  2023  2  4  6 35  0.00000000
PL64  -2627.904376   2548.459645   5810.895992    772.735406
VL64  46402.620856 -44782.231753  40417.724948 999999.999999
*  2023  2  4  6 35 30.00000000
PL64  -2487.574903   2412.431540   5928.912032    773.194968
VL64  47140.986416 -45895.409785  38252.373085 999999.999999
*  2023  2  4  6 36  0.00000000
PL64  -2345.114997   2273.134479   6040.367856    773.654910
VL64  47822.814606 -46961.296115  36044.648721 999999.999999
*  2023  2  4  6 36 30.00000000
PL64  -2200.695089   2130.712474   6145.139980    774.114903
VL64  48447.571287 -47978.474019  33796.981274 999999.999999
*  2023  2  4  6 37  0.00000000
PL64  -2054.487109   1985.313712   6243.112269    774.575173
VL64  49014.790507 -48945.576284  31511.840652 999999.999999
*  2023  2  4  6 37 30.00000000
PL64  -1906.664285   1837.090409   6334.176060    775.035497
VL64  49524.072907 -49861.286972  29191.737194 999999.999999
*  2023  2  4  6 38  0.00000000
PL64  -1757.400942   1686.198645   6418.230278    775.495932
VL64  49975.086963 -50724.344958  26839.220056 999999.999999
*  2023  2  4  6 38 30.00000000
PL64  -1606.872297   1532.798199   6495.181549    775.956631
VL64  50367.569977 -51533.545910  24456.872777 999999.999999
*  2023  2  4  6 39  0.00000000
PL64  -1455.254250   1377.052376   6564.944298    776.417148
VL64  50701.327569 -52287.742802  22047.309643 999999.999999
*  2023  2  4  6 39 30.00000000
PL64  -1302.723186   1219.127837   6627.440833    776.876839
VL64  50976.232892 -52985.846208  19613.173477 999999.999999
*  2023  2  4  6 40  0.00000000
PL64  -1149.455767   1059.194425   6682.601435    777.336584
VL64  51192.226320 -53626.825454  17157.134650 999999.999999
*  2023  2  4  6 40 30.00000000
PL64   -995.628734    897.424980   6730.364433    777.796279
VL64  51349.316266 -54209.711130  14681.889042 999999.999999
*  2023  2  4  6 41  0.00000000
PL64   -841.418698    733.995160   6770.676279    778.255769
VL64  51447.579809 -54733.597255  12190.153726 999999.999999
*  2023  2  4  6 41 30.00000000
PL64   -687.001939    569.083240   6803.491600    778.714596
VL64  51487.161398 -55197.642009   9684.662626 999999.999999
*  2023  2  4  6 42  0.00000000
PL64   -532.554204    402.869929   6828.773247    779.173581
VL64  51468.271066 -55601.067941   7168.164397 999999.999999
*  2023  2  4  6 42 30.00000000
PL64   -378.250511    235.538166   6846.492341    779.632994
VL64  51391.184217 -55943.162878   4643.421116 999999.999999
*  2023  2  4  6 43  0.00000000
PL64   -224.264956     67.272930   6856.628301    780.092769
VL64  51256.242057 -56223.281587   2113.205653 999999.999999
*  2023  2  4  6 43 30.00000000
PL64    -70.770510   -101.738968   6859.168882    780.552492
VL64  51063.850925 -56440.847030   -419.701960 999999.999999
*  2023  2  4  6 44  0.00000000
PL64     82.061169   -271.309089   6854.110182    781.012425
VL64  50814.481152 -56595.350971  -2952.517183 999999.999999
*  2023  2  4  6 44 30.00000000
PL64    234.059930   -441.247572   6841.456658    781.471987
VL64  50508.666673 -56686.355071  -5482.453157 999999.999999
*  2023  2  4  6 45  0.00000000
PL64    385.057319   -611.363349   6821.221129    781.931531
VL64  50147.004597 -56713.492129  -8006.723741 999999.999999
*  2023  2  4  6 45 30.00000000
PL64    534.886768   -781.464360   6793.424763    782.390962
VL64  49730.154717 -56676.467399 -10522.547015 999999.999999
*  2023  2  4  6 46  0.00000000
PL64    683.383779   -951.357768   6758.097067    782.850760
VL64  49258.837693 -56575.059308 -13027.150225 999999.999999
*  2023  2  4  6 46 30.00000000
PL64    830.386103  -1120.850181   6715.275844    783.310568
VL64  48733.831566 -56409.118044 -15517.771566 999999.999999
*  2023  2  4  6 47  0.00000000
PL64    975.733913  -1289.747863   6665.007172    783.770317
VL64  48155.972623 -56178.566056 -17991.658885 999999.999999
*  2023  2  4  6 47 30.00000000
PL64   1119.269980  -1457.856961   6607.345363    784.230094
VL64  47526.157244 -55883.400834 -20446.074377 999999.999999
*  2023  2  4  6 48  0.00000000
PL64   1260.839852  -1624.983725   6542.352916    784.689929
VL64  46845.338703 -55523.694862 -22878.300245 999999.999999
*  2023  2  4  6 48 30.00000000
PL64   1400.292016  -1790.934734   6470.100449    785.149802
VL64  46114.525069 -55099.595426 -25285.639648 999999.999999
*  2023  2  4  6 49  0.00000000
PL64   1537.478068  -1955.517125   6390.666638    785.609690
VL64  45334.779572 -54611.325829 -27665.420004 999999.999999
*  2023  2  4  6 49 30.00000000
PL64   1672.252876  -2118.538815   6304.138133    786.069714
VL64  44507.218165 -54059.184127 -30014.997461 999999.999999
*  2023  2  4  6 50  0.00000000
PL64   1804.474726  -2279.808728   6210.609473    786.529699
VL64  43633.007069 -53443.542891 -32331.756873 999999.999999
*  2023  2  4  6 50 30.00000000
PL64   1934.005483  -2439.137020   6110.182996    786.989663
VL64  42713.363107 -52764.851714 -34613.113800 999999.999999
*  2023  2  4  6 51  0.00000000
PL64   2060.710737  -2596.335312   6002.968742    787.449590
VL64  41749.552890 -52023.637558 -36856.520230 999999.999999
*  2023  2  4  6 51 30.00000000
PL64   2184.459947  -2751.216922   5889.084334    787.909457
VL64  40742.890693 -51220.502775 -39059.468720 999999.999999
*  2023  2  4  6 52  0.00000000
PL64   2305.126587  -2903.597082   5768.654854    788.369183
VL64  39694.736239 -50356.123736 -41219.494328 999999.999999
*  2023  2  4  6 52 30.00000000
PL64   2422.588274  -3053.293168   5641.812713    788.829021
VL64  38606.492687 -49431.251178 -43334.176246 999999.999999
*  2023  2  4  6 53  0.00000000
PL64   2536.726898  -3200.124919   5508.697515    789.289156
VL64  37479.605061 -48446.710545 -45401.140573 999999.999999
*  2023  2  4  6 53 30.00000000
PL64   2647.428745  -3343.914660   5369.455913    789.749596
VL64  36315.558863 -47403.401209 -47418.063218 999999.999999
*  2023  2  4  6 54  0.00000000
PL64   2754.584616  -3484.487527   5224.241452    790.209552
VL64  35115.878627 -46302.295410 -49382.672226 999999.999999
*  2023  2  4  6 54 30.00000000
PL64   2858.089943  -3621.671679   5073.214413    790.669483
VL64  33882.126428 -45144.438249 -51292.749756 999999.999999
*  2023  2  4  6 55  0.00000000
PL64   2957.844899  -3755.298521   4916.541647    791.129349
VL64  32615.900212 -43930.948037 -53146.135634 999999.999999
EOF
